STARLINK-5426           
1 54802U 22175AW  24155.28429087  .00003500  00000+0  23782-3 0  9995
2 54802  53.2179   1.4265 0000729  87.8910 272.2165 15.08846805 83413
STARLINK-5430           
1 54803U 22175AX  24155.43933281  .00001318  00000+0  10091-3 0  9993
2 54803  53.2188  55.9390 0001480  89.2676 270.8486 15.08838405 82660
STARLINK-5422           
1 54804U 22175AY  24155.08925425  .00000527  00000+0  51195-4 0  9998
2 54804  53.2196  42.3604 0001652  94.7130 265.4051 15.08838874 82821
STARLINK-5417           
1 54805U 22175AZ  24155.37263339 -.00000594  00000+0 -19208-4 0  9995
2 54805  53.2185  41.2826 0001518  88.0268 272.0898 15.08842826 80703
STARLINK-5412           
1 54806U 22175BA  24155.09662642  .00005396  00000+0  35696-3 0  9996
2 54806  53.2193  42.4029 0001564 100.3066 259.8103 15.08832400 82820
STARLINK-5410           
1 54807U 22175BB  24155.69646813  .00002517  00000+0  17618-3 0  9991
2 54807  53.2186  39.7498 0001440  87.7304 272.3853 15.08836795 80751
STARLINK-5413           
1 54808U 22175BC  24155.33910887  .00002695  00000+0  18736-3 0  9997
2 54808  53.2203  26.8939 0001442  91.7447 268.3711 15.08843803 83067
STARLINK-5414           
1 54809U 22175BD  24155.68909829  .00004674  00000+0  31152-3 0  9996
2 54809  53.2151  39.7019 0002737  89.4298 270.7008 15.08846476 80756
STARLINK-5408           
1 54810U 22175BE  24155.37862229  .00002159  00000+0  15368-3 0  9993
2 54810  53.2160  36.3121 0001205  79.8523 280.2605 15.08844332 82938
STARLINK-5424           
1 54811U 22175BF  24155.40537114  .00000754  00000+0  65481-4 0  9991
2 54811  53.2186  36.4695 0001476  90.1939 269.9223 15.08846113 82930
STARLINK-5382           
1 54820U 22177A   24155.39627034  .00002363  00000+0  18996-3 0  9998
2 54820  43.0047  34.5214 0000944 268.2789  91.7945 15.02530640 80039
STARLINK-5385           
1 54821U 22177B   24155.71645013  .00001188  00000+0  10302-3 0  9999
2 54821  43.0038  32.6302 0001183 278.6135  81.4573 15.02530408 79104
STARLINK-5101           
1 54822U 22177C   24155.37962170  .00001332  00000+0  11368-3 0  9992
2 54822  43.0045  34.3989 0001160 277.7488  82.3222 15.02535080 80035
STARLINK-5106           
1 54823U 22177D   24155.39294122  .00000713  00000+0  67831-4 0  9999
2 54823  43.0036  34.4975 0000882 270.9898  89.0843 15.02530968 80035
STARLINK-4643           
1 54824U 22177E   24155.65552187  .00002318  00000+0  18664-3 0  9999
2 54824  43.0042  33.0287 0000891 287.9729  72.1016 15.02532174 79095
STARLINK-4801           
1 54825U 22177F   24155.38294689  .00000743  00000+0  70043-4 0  9990
2 54825  43.0062  34.4160 0001304 271.4001  88.6692 15.02538931 80039
STARLINK-5107           
1 54826U 22177G   24155.38072990  .00001245  00000+0  10717-3 0  9999
2 54826  43.0060  34.4041 0001337 260.3911  99.6780 15.02550669 80031
STARLINK-5383           
1 54827U 22177H   24155.37295607  .00000941  00000+0  84713-4 0  9991
2 54827  43.0045  34.3461 0000705 279.2776  80.7986 15.02534677 80047
STARLINK-5381           
1 54828U 22177J   24155.70202002  .00003581  00000+0  27997-3 0  9999
2 54828  43.0053  32.5161 0001274 266.7885  93.2811 15.02540603 79105
STARLINK-5380           
1 54829U 22177K   24155.38628184  .00000758  00000+0  71198-4 0  9993
2 54829  43.0053  34.4489 0001414 273.0754  86.9927 15.02535481 80031
STARLINK-5394           
1 54830U 22177L   24155.36408361  .00000170  00000+0  27671-4 0  9991
2 54830  43.0042  34.2817 0001013 275.1019  84.9708 15.02532898 80030
STARLINK-5395           
1 54831U 22177M   24155.70868570  .00005442  00000+0  41787-3 0  9992
2 54831  43.0050  32.5664 0001091 272.5748  87.4969 15.02513544 79107
STARLINK-5393           
1 54832U 22177N   24155.67243967  .00002391  00000+0  19206-3 0  9997
2 54832  43.0055  20.1566 0001411 270.1424  89.9257 15.02532940 79241
STARLINK-5391           
1 54833U 22177P   24155.37073800  .00000007  00000+0  15626-4 0  9997
2 54833  43.0048  34.3308 0001290 272.5251  87.5444 15.02539656 80036
STARLINK-5386           
1 54834U 22177Q   24155.69535758  .00003776  00000+0  29439-3 0  9990
2 54834  43.0053  32.4644 0001304 266.7353  93.3340 15.02543346 79106
STARLINK-5389           
1 54835U 22177R   24155.63332384  .00000359  00000+0  41629-4 0  9995
2 54835  43.0047  32.8618 0001239 276.9486  83.1215 15.02538235 80079
STARLINK-5384           
1 54836U 22177S   24155.75849874 -.00004499  00000+0 -31796-3 0  9990
2 54836  43.0049  32.0800 0000974 282.0645  78.0088 15.02565289 79110
STARLINK-5369           
1 54837U 22177T   24155.36074991  .00003498  00000+0  27391-3 0  9990
2 54837  43.0050  34.2550 0001174 266.9723  93.0985 15.02532258 80036
STARLINK-5372           
1 54838U 22177U   24155.35297873  .00001162  00000+0  10109-3 0  9991
2 54838  43.0052  34.1958 0001157 255.5238 104.5476 15.02534485 80033
STARLINK-5110           
1 54839U 22177V   24155.58334491  .00018326  00000+0  14938-3 0  9999
2 54839  43.0036  24.2813 0001673 263.0179 292.7307 15.70288944  5836
STARLINK-5368           
1 54840U 22177W   24155.74297120  .00000973  00000+0  87087-4 0  9991
2 54840  43.0049  31.9590 0001152 273.4520  86.6191 15.02528393 79119
STARLINK-4659           
1 54841U 22177X   24155.35630993  .00001702  00000+0  14099-3 0  9991
2 54841  43.0060  34.2169 0001450 268.9244  91.1432 15.02541224 80034
STARLINK-5387           
1 54842U 22177Y   24155.07153059  .00000592  00000+0  58856-4 0  9990
2 54842  43.0047  35.5224 0001010 268.5542  91.5185 15.02537794 79994
STARLINK-5304           
1 54843U 22177Z   24155.34964731  .00001748  00000+0  14444-3 0  9996
2 54843  43.0051  34.1688 0001243 269.9434  90.1266 15.02537424 80034
STARLINK-5388           
1 54844U 22177AA  24155.79833564 -.00003866  00000+0 -27108-3 0  9991
2 54844  43.0048  31.4972 0001123 264.6551  95.4163 15.02562396 79124
STARLINK-5082           
1 54845U 22177AB  24155.14133596  .00000808  00000+0  74862-4 0  9990
2 54845  43.0054  35.1847 0001268 269.0127  91.0570 15.02535467 80004
STARLINK-5360           
1 54846U 22177AC  24155.06820443  .00001533  00000+0  12855-3 0  9995
2 54846  43.0061  35.4960 0001146 269.1679  90.9032 15.02534038 79990
STARLINK-5061           
1 54847U 22177AD  24155.62717400  .00001974  00000+0  16118-3 0  9991
2 54847  43.0057   6.7978 0001525 261.2740  98.7930 15.02539121 80374
STARLINK-5432           
1 54848U 22177AE  24155.33448678  .00000600  00000+0  59463-4 0  9994
2 54848  43.0065  21.9056 0001266 270.7590  89.3108 15.02539214 80174
STARLINK-5434           
1 54849U 22177AF  24155.79614570  .00002073  00000+0  16849-3 0  9997
2 54849  43.0059  31.4913 0001213 264.1152  95.9553 15.02534851 79121
STARLINK-5087           
1 54850U 22177AG  24155.33004960  .00001435  00000+0  12130-3 0  9995
2 54850  43.0044  21.8728 0000974 278.2923  81.7808 15.02533464 80171
STARLINK-5084           
1 54851U 22177AH  24155.66576596  .00000835  00000+0  76896-4 0  9994
2 54851  43.0051  20.0907 0001144 270.7462  89.3249 15.02536889 79248
STARLINK-5418           
1 54852U 22177AJ  24155.65577439  .00002427  00000+0  19464-3 0  9997
2 54852  43.0055  20.0129 0001334 266.5445  93.5245 15.02544864 79249
STARLINK-5427           
1 54853U 22177AK  24155.32671496  .00003945  00000+0  30687-3 0  9996
2 54853  43.0062  21.8464 0002025 268.3850  91.6760 15.02545290 80176
STARLINK-5419           
1 54854U 22177AL  24155.31783400  .00001531  00000+0  12834-3 0  9998
2 54854  43.0046  21.7759 0001164 271.7848  88.2861 15.02537915 80172
STARLINK-5416           
1 54855U 22177AM  24155.65244704  .00003235  00000+0  25446-3 0  9991
2 54855  43.0049  19.9884 0001178 273.2895  86.7812 15.02532185 79247
STARLINK-5086           
1 54856U 22177AN  24155.10064764  .00001568  00000+0  13110-3 0  9990
2 54856  43.0062  22.7288 0001414 265.1092  94.9589 15.02536238 80141
STARLINK-5078           
1 54857U 22177AP  24155.71004253  .00002993  00000+0  23656-3 0  9994
2 54857  43.0048  19.5666 0001162 262.7484  97.3227 15.02536425 79252
STARLINK-5407           
1 54858U 22177AQ  24155.71226956  .00002216  00000+0  17912-3 0  9997
2 54858  43.0053  19.5756 0001168 269.7079  90.3630 15.02526348 79256
STARLINK-5409           
1 54859U 22177AR  24155.70227202  .00002717  00000+0  21609-3 0  9996
2 54859  43.0065  19.5031 0001504 266.6455  93.4215 15.02543041 79256
STARLINK-5406           
1 54860U 22177AS  24155.69672256  .00003046  00000+0  24039-3 0  9995
2 54860  43.0056  19.4581 0001497 263.8887  96.1785 15.02545453 79257
STARLINK-5400           
1 54861U 22177AT  24155.31450820  .00000914  00000+0  82693-4 0  9998
2 54861  43.0042  21.7533 0001150 269.8649  90.2062 15.02534902 80177
STARLINK-5403           
1 54862U 22177AU  24155.33781480  .00000538  00000+0  54926-4 0  9990
2 54862  43.0093  21.9447 0001663 276.2720  83.7933 15.02539755 80176
STARLINK-5405           
1 54863U 22177AV  24155.70560195  .00001222  00000+0  10555-3 0  9990
2 54863  43.0051  19.5270 0001096 261.3200  98.7518 15.02535472 79250
STARLINK-5359           
1 54864U 22177AW  24155.62691863  .00000331  00000+0  39549-4 0  9994
2 54864  43.0041  19.7978 0001333 275.9172  84.1519 15.02539072 80229
STARLINK-5411           
1 54865U 22177AX  24155.31006384  .00001204  00000+0  10413-3 0  9997
2 54865  43.0047  21.7206 0001357 260.5482  99.5207 15.02546268 80176
STARLINK-5398           
1 54866U 22177AY  24155.61692464  .00003228  00000+0  25383-3 0  9991
2 54866  43.0040  19.7221 0001431 272.7946  87.2733 15.02548614 80228
STARLINK-5396           
1 54867U 22177AZ  24155.76209135  .00002543  00000+0  20324-3 0  9996
2 54867  43.0063  19.0923 0001576 264.1256  95.9407 15.02542769 79143
STARLINK-5379           
1 54868U 22177BA  24155.61249798  .00012292  00000+0  92290-3 0  9993
2 54868  43.0044  19.6870 0001493 264.3782  95.6890 15.02556787 80223
